ONEWEB-0395             
1 50475U 21132G   24338.84358118  .00004941  00000+0  13904-1 0  9993
2 50475  87.8885 132.7406 0001294 107.7291 252.3978 13.11389568142270
ONEWEB-0396             
1 50476U 21132H   24338.81946359 -.00000003  00000+0 -39731-4 0  9997
2 50476  87.9111  86.9521 0001792 102.9667 257.1665 13.18687498147786
ONEWEB-0397             
1 50477U 21132J   24338.83366372 -.00002721  00000+0 -69353-2 0  9991
2 50477  87.9102  86.9497 0001085  98.9994 261.1261 13.18700420147767
ONEWEB-0398             
1 50478U 21132K   24338.81134943  .00000540  00000+0  14882-2 0  9999
2 50478  87.8880 132.7198 0001147 111.0968 249.0282 13.11415221142167
ONEWEB-0399             
1 50479U 21132L   24338.79777249  .00000156  00000+0  40482-3 0  9998
2 50479  87.8883 132.7424 0001896  93.0768 267.0577 13.11418082142155
ONEWEB-0400             
1 50480U 21132M   24338.81314183  .00000087  00000+0  18783-3 0  9999
2 50480  87.9105  86.9518 0001463 108.8124 251.3167 13.18684749147754
ONEWEB-0401             
1 50481U 21132N   24338.85582285  .00000102  00000+0  22635-3 0  9993
2 50481  87.9104  86.9380 0001734  94.5066 265.6264 13.18685603147765
ONEWEB-0402             
1 50482U 21132P   24338.82105276  .00000025  00000+0  31294-4 0  9998
2 50482  87.9106  86.9426 0001949  83.7643 276.3711 13.18686247147781
